BEGIN IMS1.0
MSG_TYPE DATA
MSG_ID 10000K0T_5 HYDRA_RED
DATA_TYPE BULLETIN IMS1.0:SHORT
The following is an UNCHECKED, FULLY AUTOMATIC LOCATION from the USGS/NEIC Hydra System
Event    24058 

   Date       Time        Err   RMS Latitude Longitude  Smaj  Smin  Az Depth   Err Ndef Nst  Gap  mdist  Mdist Qual   Author      OrigID
2019/11/02 18:08:53.75   2.59  1.28 -54.8493  -26.9994  41.5  21.3 127  41.1  19.1   14   14 279  18.77  74.37 a i se NEIC         48391
2019/11/02 18:09:09.22   2.84  1.40 -53.0485  -31.2577  42.2  21.6 135   0.0  27.3   65    0 252   3.35  71.34 a i se NEIC         48390

Magnitude  Err Nsta Author      OrigID
mb     6.6 0.1   44 NEIC         48391
M      6.1 0.1  120 NEIC         48391
mb_Lg  5.4 0.5    1 NEIC         48391
Ms_BB  5.8 0.5    1 NEIC         48391
mB_BB  6.8 0.1   43 NEIC         48391
Mwp    6.2 0.1   37 NEIC         48391

Sta     Dist  EvAz Phase        Time      Tres  Azim AzRes   Slow   SRes Def   SNR       Amp   Per Qual Magnitude    ArrID
EFI    18.77 266.9 P        18:13:06.640  -2.4                           T__                       a__            BHZII00
EFI    18.77 266.9 IAmb     18:13:29.015                                 ___           201.8  1.00 a__ mb     5.3 BHZII00
RCBR   49.40 348.3 P        18:17:38.109  -1.1                           T__                       a__            BHZIU00
RCBR   49.40 348.3 IAmb     18:17:40.809                                 ___           987.2  1.90 a__ mb     6.5 BHZIU00
RCBR   49.40 348.3 IVmB_BB  18:17:40.359                                 ___          4611.6  2.20 a__ mB_BB  6.7 BHZIU00
RCBR   49.40 348.3 MMwp     18:17:51.710                                 ___         13589.1 13.60 a__ Mwp    6.2 BHZIU00
LYAR   49.39 300.2 P        18:17:39.009  -0.1                           T__                       a__            BHZPE--
LYAR   49.39 300.2 IVmB_BB  18:17:40.029                                 ___          7285.2  1.88 a__ mB_BB  6.9 BHZPE--
LYAR   49.39 300.2 MMwp     18:17:42.230                                 ___          9581.3  3.22 a__ Mwp    6.1 BHZPE--
LYAR   49.39 300.2 IAmb     18:17:59.230                                 ___           577.4  1.08 a__ mb     6.5 BHZPE--
LPAZ   49.78 304.1 P        18:17:43.319   0.5                           T__                       a__            BHZGT00
LPAZ   49.78 304.1 IAmb     18:17:44.970                                 ___          7502.8  1.85 a__ mb     7.4 BHZGT00
LPAZ   49.78 304.1 IVmB_BB  18:17:44.394                                 ___         24866.1  1.85 a__ mB_BB  7.4 BHZGT00
LPAZ   49.78 304.1 MMwp     18:18:04.720                                 ___         29632.8 21.40 a__ Mwp    6.5 BHZGT00
TOQ0   50.14 300.7 P        18:17:45.329   0.1                           T__                       a__            BHZPE--
TOQ0   50.14 300.7 IAmb     18:17:46.910                                 ___          1347.7  1.88 a__ mb     6.7 BHZPE--
TOQ0   50.14 300.7 IVmB_BB  18:17:46.410                                 ___          6172.2  2.68 a__ mB_BB  6.8 BHZPE--
TOQ0   50.14 300.7 MMwp     18:17:56.630                                 ___         12819.0 11.30 a__ Mwp    6.2 BHZPE--
UB10   51.10 301.1 P        18:17:53.690   0.9                           T__                       a__            BHZPE--
UB10   51.10 301.1 IVmB_BB  18:17:54.809                                 ___          6854.9  2.00 a__ mB_BB  6.8 BHZPE--
UB10   51.10 301.1 IAmb     18:18:00.710                                 ___          1549.7  1.64 a__ mb     6.7 BHZPE--
UB10   51.10 301.1 MMwp     18:19:04.849                                 ___        189823.1 71.16 a__ Mwp    7.1 BHZPE--
HSAL   51.22 300.8 P        18:17:54.559   0.9                           T__                       a__            BHZPE--
HSAL   51.22 300.8 IAmb     18:17:57.099                                 ___          2422.2  1.92 a__ mb     6.9 BHZPE--
HSAL   51.22 300.8 IVmB_BB  18:17:55.660                                 ___          7077.3  1.92 a__ mB_BB  6.8 BHZPE--
HSAL   51.22 300.8 MMwp     18:17:57.619                                 ___          9033.5  3.06 a__ Mwp    6.1 BHZPE--
PAT0   51.93 300.6 P        18:18:00.319   1.3                           T__                       a__            BHZPE--
PAT0   51.93 300.6 IVmB_BB  18:18:01.500                                 ___          4225.9  2.52 a__ mB_BB  6.6 BHZPE--
PAT0   51.93 300.6 MMwp     18:18:04.380                                 ___          5744.0  4.06 a__ Mwp    5.9 BHZPE--
PAT0   51.93 300.6 IAmb     18:18:20.700                                 ___           459.2  1.28 a__ mb     6.3 BHZPE--
CHAY   52.16 303.7 P        18:18:00.890   0.3                           T__                       a__            BHZPE--
CHAY   52.16 303.7 IVmB_BB  18:18:02.089                                 ___          3952.5  4.52 a__ mB_BB  6.6 BHZPE--
CHAY   52.16 303.7 IAmb     18:18:20.230                                 ___           244.4  1.08 a__ mb     6.1 BHZPE--
CHAY   52.16 303.7 MMwp     18:18:23.750                                 ___         16810.8 22.86 a__ Mwp    6.3 BHZPE--
ANDY   52.53 299.4 P        18:18:03.349   0.2                           T__                       a__            BHZPE--
ANDY   52.53 299.4 IVmB_BB  18:18:04.569                                 ___          4878.8  1.76 a__ mB_BB  6.7 BHZPE--
ANDY   52.53 299.4 MMwp     18:18:07.430                                 ___          9023.8  4.08 a__ Mwp    6.1 BHZPE--
ANDY   52.53 299.4 IAmb     18:18:23.630                                 ___           354.2  1.12 a__ mb     6.3 BHZPE--
YCA0   53.49 297.8 P        18:18:10.269   0.5                           ___                       a__            BHZPE--
YCA0   53.49 297.8 IAmb     18:18:11.769                                 ___          3419.3  1.92 a__ mb     7.0 BHZPE--
YCA0   53.49 297.8 IVmB_BB  18:18:11.130                                 ___         10655.0  2.00 a__ mB_BB  7.0 BHZPE--
YCA0   53.49 297.8 MMwp     18:18:20.529                                 ___         12313.3 10.26 a__ Mwp    6.2 BHZPE--
APAT   53.58 302.6 P        18:18:11.430   0.3                           ___                       a__            BHZPE--
APAT   53.58 302.6 IAmb     18:18:13.369                                 ___          2409.5  1.84 a__ mb     6.9 BHZPE--
APAT   53.58 302.6 IVmB_BB  18:18:12.869                                 ___          8395.5  2.00 a__ mB_BB  6.9 BHZPE--
APAT   53.58 302.6 MMwp     18:19:24.430                                 ___        437760.2 73.00 a__ Mwp    7.4 BHZPE--
QLLH   54.01 301.8 P        18:18:14.670   0.5                           ___                       a__            BHZPE--
QLLH   54.01 301.8 IAmb     18:18:16.210                                 ___          1327.2  1.76 a__ mb     6.7 BHZPE--
QLLH   54.01 301.8 IVmB_BB  18:18:15.730                                 ___          5240.1  1.96 a__ mB_BB  6.7 BHZPE--
QLLH   54.01 301.8 MMwp     18:18:39.470                                 ___         20932.1 24.80 a__ Mwp    6.4 BHZPE--
SCRT   54.06 301.0 P        18:18:15.549   1.1                           ___                       a__            BHZPE--
SCRT   54.06 301.0 IAmb     18:18:36.970                                 ___           243.8  1.16 a__ mb     6.1 BHZPE--
SCRT   54.06 301.0 IVmB_BB  18:18:36.470                                 ___          2300.3  1.56 a__ mB_BB  6.4 BHZPE--
ISAB   54.40 299.2 P        18:18:18.029   1.1                           ___                       a__            BHZPE--
ISAB   54.40 299.2 IVmB_BB  18:18:19.049                                 ___          3957.3  2.68 a__ mB_BB  6.6 BHZPE--
ISAB   54.40 299.2 IAmb     18:18:35.670                                 ___           398.9  0.92 a__ mb     6.4 BHZPE--
MPCH   55.37 301.5 P        18:18:23.890   0.3                           ___                       a__            BHZPE--
MPCH   55.37 301.5 IAmb     18:18:25.430                                 ___          1441.8  1.84 a__ mb     6.7 BHZPE--
MPCH   55.37 301.5 IVmB_BB  18:18:25.029                                 ___          5410.9  1.96 a__ mB_BB  6.7 BHZPE--
MPCH   55.37 301.5 MMwp     18:18:27.490                                 ___          9782.4  3.60 a__ Mwp    6.1 BHZPE--
PACL   55.35 299.9 P        18:18:24.769   0.9                           ___                       a__            BHZPE--
PACL   55.35 299.9 IVmB_BB  18:18:25.910                                 ___          4481.2  2.76 a__ mB_BB  6.7 BHZPE--
PACL   55.35 299.9 IAmb     18:18:44.289                                 ___           365.3  1.24 a__ mb     6.3 BHZPE--
GUA0   55.53 297.6 P        18:18:24.970   0.2                           ___                       a__            BHZPE--
GUA0   55.53 297.6 IAmb     18:18:26.470                                 ___           705.4  1.76 a__ mb     6.4 BHZPE--
GUA0   55.53 297.6 IVmB_BB  18:18:25.990                                 ___          1802.5  1.76 a__ mB_BB  6.3 BHZPE--
AYA0   55.45 299.7 P        18:18:26.039   1.6                           ___                       a__            BHZPE--
AYA0   55.45 299.7 IVmB_BB  18:18:26.900                                 ___         11005.4  1.76 a__ mB_BB  7.0 BHZPE--
AYA0   55.45 299.7 MMwp     18:18:32.680                                 ___         10582.6  6.64 a__ Mwp    6.2 BHZPE--
AYA0   55.45 299.7 IAmb     18:18:46.240                                 ___          1348.2  1.16 a__ mb     6.9 BHZPE--
PAR0   55.95 297.1 P        18:18:27.750   0.1                           ___                       a__            BHZPE--
PAR0   55.95 297.1 IAmb     18:18:29.309                                 ___          1543.8  1.84 a__ mb     6.7 BHZPE--
PAR0   55.95 297.1 IVmB_BB  18:18:28.809                                 ___          5767.1  1.92 a__ mB_BB  6.8 BHZPE--
PAR0   55.95 297.1 MMwp     18:18:31.049                                 ___          6756.3  3.30 a__ Mwp    6.0 BHZPE--
PCPA   55.99 298.9 P        18:18:30.190   1.5                           ___                       a__            BHZPE--
PCPA   55.99 298.9 IVmB_BB  18:18:31.789                                 ___          3163.7  2.68 a__ mB_BB  6.5 BHZPE--
PCPA   55.99 298.9 IAmb     18:18:54.950                                 ___           222.7  1.08 a__ mb     6.1 BHZPE--
PCPA   55.99 298.9 MMwp     18:18:58.230                                 ___         15811.7 28.04 a__ Mwp    6.3 BHZPE--
CAZU   56.78 297.6 P        18:18:32.890  -0.7                           ___                       a__            BHZPE--
CAZU   56.78 297.6 IAmb     18:18:33.670                                 ___           266.6  0.84 a__ mb     6.3 BHZPE--
CAZU   56.78 297.6 IVmB_BB  18:18:33.970                                 ___          5710.8  1.88 a__ mB_BB  6.8 BHZPE--
CAZU   56.78 297.6 MMwp     18:18:37.190                                 ___          9240.5  4.30 a__ Mwp    6.1 BHZPE--
HYO0   56.95 299.3 P        18:18:36.509   1.2                           ___                       a__            BHZPE--
HYO0   56.95 299.3 IVmB_BB  18:18:37.690                                 ___          3440.9  2.20 a__ mB_BB  6.5 BHZPE--
HYO0   56.95 299.3 MMwp     18:18:47.150                                 ___          9749.8 10.64 a__ Mwp    6.1 BHZPE--
HYO0   56.95 299.3 IAmb     18:19:15.690                                 ___           328.3  1.36 a__ mb     6.2 BHZPE--
STPO   57.33 300.5 P        18:18:38.450   0.8                           ___                       a__            BHZPE--
STPO   57.33 300.5 IAmb     18:18:40.069                                 ___          2588.2  1.84 a__ mb     7.0 BHZPE--
STPO   57.33 300.5 IVmB_BB  18:18:39.450                                 ___          8715.4  1.84 a__ mB_BB  7.0 BHZPE--
STPO   57.33 300.5 MMwp     18:19:03.769                                 ___         15892.0 25.32 a__ Mwp    6.3 BHZPE--
HUB0   57.77 297.6 P        18:18:39.609  -1.0                           ___                       a__            BHZPE--
HUB0   57.77 297.6 IVmB_BB  18:18:40.710                                 ___          3572.4  2.44 a__ mB_BB  6.6 BHZPE--
HUB0   57.77 297.6 IAmb     18:18:42.230                                 ___           114.2  0.92 a__ mb     5.9 BHZPE--
NNA0   57.77 297.8 P        18:18:39.910  -0.7                           T__                       a__            BHZII00
NNAP   57.77 297.8 P        18:18:39.960  -0.7                           ___                       a__            BHZPE--
NNAP   57.77 297.8 IAmb     18:18:41.470                                 ___          1422.0  1.86 a__ mb     6.7 BHZPE--
NNAP   57.77 297.8 IVmB_BB  18:18:40.940                                 ___          5463.0  1.92 a__ mB_BB  6.8 BHZPE--
NNAP   57.77 297.8 MMwp     18:18:43.029                                 ___          5409.3  3.07 a__ Mwp    5.9 BHZPE--
SNLR   57.90 297.3 P        18:18:41.000  -0.5                           ___                       a__            BHZPE--
SNLR   57.90 297.3 IAmb     18:18:43.049                                 ___          1390.8  1.78 a__ mb     6.8 BHZPE--
SNLR   57.90 297.3 IVmB_BB  18:18:41.640                                 ___          6139.6  1.92 a__ mB_BB  6.8 BHZPE--
SNLR   57.90 297.3 MMwp     18:19:05.640                                 ___         22860.1 24.64 a__ Mwp    6.4 BHZPE--
ANC0   58.11 297.6 P        18:18:41.880  -1.0                           ___                       a__            BHZPE--
ANC0   58.11 297.6 IAmb     18:18:43.420                                 ___           913.2  2.00 a__ mb     6.5 BHZPE--
ANC0   58.11 297.6 IVmB_BB  18:18:42.859                                 ___          3361.4  1.94 a__ mB_BB  6.6 BHZPE--
YANA   58.55 299.3 P        18:18:47.230   0.6                           ___                       a__            BHZPE--
YANA   58.55 299.3 IAmb     18:18:48.970                                 ___           852.1  1.48 a__ mb     6.6 BHZPE--
YANA   58.55 299.3 IVmB_BB  18:18:48.490                                 ___          5443.7  1.72 a__ mB_BB  6.8 BHZPE--
YANA   58.55 299.3 MMwp     18:19:07.130                                 ___         15770.5 19.90 a__ Mwp    6.3 BHZPE--
PUC0   59.76 302.1 P        18:18:54.569   0.2                           ___                       a__            BHZPE--
PUC0   59.76 302.1 IAmb     18:18:55.869                                 ___          2711.1  1.72 a__ mb     7.1 BHZPE--
PUC0   59.76 302.1 IVmB_BB  18:18:55.289                                 ___         12646.0  1.88 a__ mB_BB  7.2 BHZPE--
PUC0   59.76 302.1 MMwp     18:19:10.150                                 ___         27190.4 15.58 a__ Mwp    6.5 BHZPE--
HMEY   60.03 297.7 P        18:18:55.329  -0.9                           ___                       a__            BHZPE--
HMEY   60.03 297.7 IVmB_BB  18:18:56.369                                 ___          3761.9  2.12 a__ mB_BB  6.7 BHZPE--
HMEY   60.03 297.7 IAmb     18:18:56.890                                 ___           988.5  1.92 a__ mb     6.6 BHZPE--
HMEY   60.03 297.7 MMwp     18:19:06.829                                 ___          9966.8 11.50 a__ Mwp    6.2 BHZPE--
MNZN   59.85 299.9 P        18:18:55.349   0.3                           ___                       a__            BHZPE--
MNZN   59.85 299.9 IVmB_BB  18:18:56.569                                 ___          4603.8  2.32 a__ mB_BB  6.8 BHZPE--
MNZN   59.85 299.9 IAmb     18:19:16.730                                 ___           246.5  0.92 a__ mb     6.3 BHZPE--
MNZN   59.85 299.9 MMwp     18:19:22.829                                 ___         34760.8 27.48 a__ Mwp    6.6 BHZPE--
NVMI   60.37 299.3 P        18:18:59.990   0.9                           ___                       a__            BHZPE--
NVMI   60.37 299.3 IAmb     18:19:01.589                                 ___          1290.4  1.80 a__ mb     6.8 BHZPE--
NVMI   60.37 299.3 IVmB_BB  18:19:01.089                                 ___          5901.4  1.96 a__ mB_BB  6.9 BHZPE--
CBT0   61.06 297.9 P        18:19:02.609  -0.6                           ___                       a__            BHZPE--
CBT0   61.06 297.9 IAmb     18:19:04.029                                 ___          1319.1  1.82 a__ mb     6.8 BHZPE--
CBT0   61.06 297.9 IVmB_BB  18:19:03.490                                 ___          5509.4  2.04 a__ mB_BB  6.8 BHZPE--
CBT2   61.16 297.8 P        18:19:03.200  -0.8                           ___                       a__            BHZPE--
CBT2   61.16 297.8 IAmb     18:19:04.700                                 ___          1733.0  1.96 a__ mb     6.8 BHZPE--
CBT2   61.16 297.8 IVmB_BB  18:19:04.180                                 ___          5625.5  2.04 a__ mB_BB  6.8 BHZPE--
CBT2   61.16 297.8 MMwp     18:20:24.200                                 ___        610386.7 81.00 a__ Mwp    7.6 BHZPE--
YLS0   60.98 298.6 P        18:19:04.069   0.9                           ___                       a__            BHZPE--
YLS0   60.98 298.6 IAmb     18:19:05.730                                 ___           724.5  2.00 a__ mb     6.5 BHZPE--
YLS0   60.98 298.6 IVmB_BB  18:19:05.109                                 ___          3086.5  2.40 a__ mB_BB  6.6 BHZPE--
YLS0   60.98 298.6 MMwp     18:19:14.849                                 ___          6718.8 10.78 a__ Mwp    6.0 BHZPE--
LVIC   61.16 299.5 P        18:19:04.910   0.4                           ___                       a__            BHZPE--
LVIC   61.16 299.5 IVmB_BB  18:19:06.029                                 ___          6517.8  1.80 a__ mB_BB  6.9 BHZPE--
LVIC   61.16 299.5 IAmb     18:19:25.369                                 ___           643.7  1.12 a__ mb     6.7 BHZPE--
LVIC   61.16 299.5 MMwp     18:19:30.269                                 ___         16702.3 25.36 a__ Mwp    6.3 BHZPE--
BVTA   61.88 300.9 P        18:19:08.849   0.0                           ___                       a__            BHZPE--
BVTA   61.88 300.9 IVmB_BB  18:19:10.069                                 ___          3112.7  1.92 a__ mB_BB  6.6 BHZPE--
BVTA   61.88 300.9 IAmb     18:19:10.650                                 ___           678.7  1.76 a__ mb     6.5 BHZPE--
BVTA   61.88 300.9 MMwp     18:20:16.769                                 ___         67765.1 67.92 a__ Mwp    6.8 BHZPE--
QRHC   62.12 298.1 P        18:19:09.349  -1.1                           T__                       a__            BHZPE--
QRHC   62.12 298.1 IAmb     18:19:11.089                                 ___           830.4  1.68 a__ mb     6.6 BHZPE--
QRHC   62.12 298.1 IVmB_BB  18:19:10.589                                 ___          4391.7  1.92 a__ mB_BB  6.7 BHZPE--
QRHC   62.12 298.1 MMwp     18:19:13.509                                 ___          6947.9  4.16 a__ Mwp    6.1 BHZPE--
TICA   61.78 299.2 P        18:19:09.390   0.9                           ___                       a__            BHZPE--
TICA   61.78 299.2 IVmB_BB  18:19:10.549                                 ___          3549.6  2.16 a__ mB_BB  6.7 BHZPE--
TICA   61.78 299.2 MMwp     18:19:13.470                                 ___          9085.7  4.08 a__ Mwp    6.2 BHZPE--
TICA   61.78 299.2 IAmb     18:19:25.990                                 ___           151.1  0.84 a__ mb     6.2 BHZPE--
YRM0   62.63 302.0 P        18:19:13.640  -0.2                           ___                       a__            BHZPE--
YRM0   62.63 302.0 IAmb     18:19:15.289                                 ___          1866.9  1.70 a__ mb     6.9 BHZPE--
YRM0   62.63 302.0 IVmB_BB  18:19:14.740                                 ___          9129.3  1.90 a__ mB_BB  7.1 BHZPE--
