BEGIN IMS1.0
MSG_TYPE DATA
MSG_ID 10000KFN_6 HYDRA_RED
DATA_TYPE BULLETIN IMS1.0:SHORT
The following is an UNCHECKED, FULLY AUTOMATIC LOCATION from the USGS/NEIC Hydra System
Event    24556 

   Date       Time        Err   RMS Latitude Longitude  Smaj  Smin  Az Depth   Err Ndef Nst  Gap  mdist  Mdist Qual   Author      OrigID
2019/11/20 04:27:08.97   2.30  1.13  13.9155  -92.9996  27.7  12.9  53  29.3   8.4   23   22 296  14.74  72.02 a i se NEIC         49389
2019/11/20 04:27:08.69   2.95  1.45  14.2077  -92.7907  27.6  12.6  53  24.2   7.7   76    0 295  14.99  72.21 a i se NEIC         49388

Magnitude  Err Nsta Author      OrigID
mb     6.1 0.1   54 NEIC         49389
M      6.0 0.1  191 NEIC         49389
Mwp    6.1 0.1   42 NEIC         49389
mB_BB  6.3 0.1   53 NEIC         49389
Ms_BB  6.3 0.1   47 NEIC         49389
Mwc    6.5 0.0   53 NEIC         49389

Sta     Dist  EvAz Phase        Time      Tres  Azim AzRes   Slow   SRes Def   SNR       Amp   Per Qual Magnitude    ArrID
PAYG   14.74 169.3 Pn       04:30:38.910   3.2                           T__                       a__            BHZIU00
PAYG   14.74 169.3 IVMs_BB  04:34:31.777                                 ___        190971.8 18.17 a__ Ms_BB  6.7 BHZIU00
TBM0   21.41 143.1 P        04:32:01.630   6.9                           ___                       a__            BHZPE--
TBM0   21.41 143.1 IAmb     04:32:05.769                                 ___           467.0  1.08 a__ mb     5.8 BHZPE--
TBM0   21.41 143.1 MMwp     04:32:04.950                                 ___           380.3  3.32 a__ Mwp    4.7 BHZPE--
TBM0   21.41 143.1 IVmB_BB  04:32:24.849                                 ___          3766.4  1.68 a__ mB_BB  6.0 BHZPE--
CHO0   22.41 147.0 P        04:32:05.549   0.2                           T__                       a__            BHZPE--
CHO0   22.41 147.0 IAmb     04:32:13.990                                 ___           264.8  1.56 a__ mb     5.5 BHZPE--
CHO0   22.41 147.0 MMwp     04:32:07.690                                 ___          1050.6  2.14 a__ Mwp    5.1 BHZPE--
CHO0   22.41 147.0 IVmB_BB  04:32:33.509                                 ___          3082.8  4.48 a__ mB_BB  5.9 BHZPE--
CHO0   22.41 147.0 IVMs_BB  04:38:25.196                                 ___         17168.8 20.62 a__ Ms_BB  6.0 BHZPE--
HNAL   22.74 144.1 P        04:32:08.430  -0.9                           T__                       a__            BHZPE--
HNAL   22.74 144.1 IAmb     04:32:17.470                                 ___           525.1  1.20 a__ mb     5.9 BHZPE--
HNAL   22.74 144.1 IVmB_BB  04:32:17.089                                 ___          4787.7  1.52 a__ mB_BB  6.1 BHZPE--
HNAL   22.74 144.1 MMwp     04:32:17.630                                 ___         25839.7  9.20 a__ Mwp    6.2 BHZPE--
SNIG   23.46 142.8 P        04:32:16.750   0.0                           T__                       a__            BHZPE--
SNIG   23.46 142.8 IVmB_BB  04:32:24.690                                 ___         12818.7  2.68 a__ mB_BB  6.6 BHZPE--
SNIG   23.46 142.8 IAmb     04:32:26.190                                 ___           634.5  1.12 a__ mb     6.0 BHZPE--
SNIG   23.46 142.8 MMwp     04:32:29.829                                 ___         31032.3 13.08 a__ Mwp    6.2 BHZPE--
SNIG   23.46 142.8 IVMs_BB  04:39:07.891                                 ___         26606.6 24.04 a__ Ms_BB  6.2 BHZPE--
HCA0   23.56 144.4 P        04:32:17.450  -0.4                           T__                       a__            BHZPE--
HCA0   23.56 144.4 IVmB_BB  04:32:25.029                                 ___         11119.8  2.80 a__ mB_BB  6.5 BHZPE--
HCA0   23.56 144.4 IAmb     04:32:32.789                                 ___           923.4  1.36 a__ mb     6.1 BHZPE--
HCA0   23.56 144.4 MMwp     04:32:35.930                                 ___         36688.0 18.48 a__ Mwp    6.3 BHZPE--
PCH0   23.80 145.4 P        04:32:19.029  -0.6                           T__                       a__            BHZPE--
PCH0   23.80 145.4 IAmb     04:32:27.150                                 ___          3323.5  1.92 a__ mb     6.5 BHZPE--
PCH0   23.80 145.4 IVmB_BB  04:32:26.809                                 ___         18129.7  2.40 a__ mB_BB  6.8 BHZPE--
PCH0   23.80 145.4 MMwp     04:32:37.569                                 ___         45941.3 18.54 a__ Mwp    6.4 BHZPE--
PCH0   23.80 145.4 IVMs_BB  04:40:23.815                                 ___         59382.6 15.10 a__ Ms_BB  6.6 BHZPE--
NIEV   23.74 139.7 P        04:32:19.130   0.1                           T__                       a__            BHZPE--
NIEV   23.74 139.7 IAmb     04:32:27.430                                 ___          1253.8  1.48 a__ mb     6.2 BHZPE--
NIEV   23.74 139.7 IVmB_BB  04:32:27.029                                 ___         10733.8  1.92 a__ mB_BB  6.5 BHZPE--
NIEV   23.74 139.7 MMwp     04:32:40.809                                 ___         55462.2 21.68 a__ Mwp    6.4 BHZPE--
GYAO   24.74 144.6 P        04:32:28.269  -0.1                           T__                       a__            BHZPE--
GYAO   24.74 144.6 IVmB_BB  04:32:37.029                                 ___          8451.8  3.44 a__ mB_BB  6.5 BHZPE--
GYAO   24.74 144.6 IAmb     04:32:37.589                                 ___           691.6  1.36 a__ mb     6.1 BHZPE--
GYAO   24.74 144.6 MMwp     04:32:42.490                                 ___         26824.6 14.22 a__ Mwp    6.2 BHZPE--
GYAO   24.74 144.6 IVMs_BB  04:41:11.235                                 ___         22668.4 13.12 a__ Ms_BB  6.2 BHZPE--
QNJL   25.00 141.6 P        04:32:31.049   0.1                           T__                       a__            BHZPE--
QNJL   25.00 141.6 IAmb     04:32:40.470                                 ___          2203.5  1.28 a__ mb     6.6 BHZPE--
QNJL   25.00 141.6 IVmB_BB  04:32:39.890                                 ___         24725.8  3.48 a__ mB_BB  7.0 BHZPE--
QNJL   25.00 141.6 MMwp     04:32:44.589                                 ___         50698.7 13.54 a__ Mwp    6.4 BHZPE--
YRM0   25.84 138.5 P        04:32:38.140   0.0                           ___                       a__            BHZPE--
YRM0   25.84 138.5 IAmb     04:32:47.940                                 ___          1760.8  1.70 a__ mb     6.4 BHZPE--
YRM0   25.84 138.5 MMwp     04:32:46.339                                 ___         17877.8  8.20 a__ Mwp    6.1 BHZPE--
YRM0   25.84 138.5 IVmB_BB  04:32:47.289                                 ___          9008.7  1.90 a__ mB_BB  6.5 BHZPE--
QRHC   25.97 146.4 P        04:32:38.190  -1.1                           ___                       a__            BHZPE--
QRHC   25.97 146.4 IAmb     04:32:46.630                                 ___           654.0  1.44 a__ mb     6.0 BHZPE--
QRHC   25.97 146.4 IVmB_BB  04:32:47.769                                 ___          3471.9  1.96 a__ mB_BB  6.1 BHZPE--
QRHC   25.97 146.4 MMwp     04:32:53.269                                 ___         16502.3 15.08 a__ Mwp    6.1 BHZPE--
QRHC   25.97 146.4 IVMs_BB  04:41:09.414                                 ___         29594.4 15.96 a__ Ms_BB  6.3 BHZPE--
BVTA   26.43 141.0 P        04:32:43.309  -0.2                           ___                       a__            BHZPE--
BVTA   26.43 141.0 IAmb     04:32:51.710                                 ___           341.7  1.44 a__ mb     5.8 BHZPE--
BVTA   26.43 141.0 MMwp     04:32:52.630                                 ___          5674.1  9.32 a__ Mwp    5.7 BHZPE--
BVTA   26.43 141.0 IVmB_BB  04:32:53.430                                 ___          2013.6  1.92 a__ mB_BB  5.9 BHZPE--
BVTA   26.43 141.0 IVMs_BB  04:41:28.850                                 ___         17893.3 19.94 a__ Ms_BB  6.1 BHZPE--
TICA   26.36 144.5 P        04:32:44.769   1.5                           ___                       a__            BHZPE--
TICA   26.36 144.5 IAmb     04:32:52.490                                 ___           297.4  1.16 a__ mb     5.8 BHZPE--
TICA   26.36 144.5 IVmB_BB  04:32:54.109                                 ___          5364.2  6.64 a__ mB_BB  6.3 BHZPE--
TICA   26.36 144.5 MMwp     04:32:58.670                                 ___         21031.5 13.90 a__ Mwp    6.1 BHZPE--
TICA   26.36 144.5 PcP      04:36:10.569   1.7                           T__                       a__            BHZPE--
TICA   26.36 144.5 IVMs_BB  04:41:16.508                                 ___         34207.1 17.40 a__ Ms_BB  6.4 BHZPE--
CBT2   26.93 147.2 P        04:32:47.440  -0.5                           ___                       a__            BHZPE--
CBT2   26.93 147.2 IAmb     04:32:55.299                                 ___           583.5  1.28 a__ mb     6.1 BHZPE--
CBT2   26.93 147.2 IVmB_BB  04:32:54.940                                 ___          4023.3  1.44 a__ mB_BB  6.2 BHZPE--
CBT2   26.93 147.2 PcP      04:36:08.960  -0.8                           T__                       a__            BHZPE--
CBT2   26.93 147.2 IVMs_BB  04:41:13.201                                 ___         25402.1 18.76 a__ Ms_BB  6.3 BHZPE--
CBT0   27.03 147.1 P        04:32:48.890   0.0                           ___                       a__            BHZPE--
CBT0   27.03 147.1 IAmb     04:32:56.319                                 ___           469.2  1.36 a__ mb     5.9 BHZPE--
CBT0   27.03 147.1 IVmB_BB  04:32:55.970                                 ___          3135.8  1.46 a__ mB_BB  6.1 BHZPE--
LVIC   27.00 143.8 P        04:32:49.650   0.4                           ___                       a__            BHZPE--
LVIC   27.00 143.8 IAmb     04:32:58.009                                 ___           902.1  1.32 a__ mb     6.2 BHZPE--
LVIC   27.00 143.8 IVmB_BB  04:32:57.569                                 ___          6030.7  1.48 a__ mB_BB  6.4 BHZPE--
LVIC   27.00 143.8 MMwp     04:33:03.430                                 ___         15832.6 13.78 a__ Mwp    6.1 BHZPE--
LVIC   27.00 143.8 IVMs_BB  04:41:12.028                                 ___         26030.6 23.30 a__ Ms_BB  6.3 BHZPE--
YLS0   27.13 145.6 P        04:32:51.210   0.9                           ___                       a__            BHZPE--
YLS0   27.13 145.6 IAmb     04:32:59.250                                 ___           677.9  1.32 a__ mb     6.1 BHZPE--
YLS0   27.13 145.6 IVmB_BB  04:32:58.769                                 ___          4941.9  1.56 a__ mB_BB  6.3 BHZPE--
YLS0   27.13 145.6 MMwp     04:33:11.130                                 ___          7355.8 19.92 a__ Mwp    5.8 BHZPE--
YLS0   27.13 145.6 IVMs_BB  04:42:12.376                                 ___         15656.1 15.78 a__ Ms_BB  6.1 BHZPE--
NVMI   27.78 144.4 P        04:32:56.910   0.8                           ___                       a__            BHZPE--
NVMI   27.78 144.4 IVmB_BB  04:33:02.950                                 ___          3148.7  4.64 a__ mB_BB  6.2 BHZPE--
NVMI   27.78 144.4 IAmb     04:33:04.910                                 ___           378.8  1.28 a__ mb     5.9 BHZPE--
NVMI   27.78 144.4 MMwp     04:33:11.609                                 ___         16681.7 14.70 a__ Mwp    6.1 BHZPE--
NVMI   27.78 144.4 IVMs_BB  04:42:43.217                                 ___         31922.6 15.46 a__ Ms_BB  6.4 BHZPE--
HMEY   28.05 147.5 P        04:32:57.509  -0.5                           ___                       a__            BHZPE--
HMEY   28.05 147.5 IAmb     04:33:05.029                                 ___           482.8  1.28 a__ mb     6.1 BHZPE--
HMEY   28.05 147.5 IVmB_BB  04:33:04.650                                 ___          3660.8  1.52 a__ mB_BB  6.3 BHZPE--
HMEY   28.05 147.5 IVMs_BB  04:41:36.859                                 ___         19203.0 19.94 a__ Ms_BB  6.2 BHZPE--
MNZN   28.34 143.4 P        04:33:00.670  -0.1                           ___                       a__            BHZPE--
MNZN   28.34 143.4 IAmb     04:33:08.230                                 ___           236.8  1.16 a__ mb     5.8 BHZPE--
MNZN   28.34 143.4 IVmB_BB  04:33:07.529                                 ___          2638.3  2.88 a__ mB_BB  6.1 BHZPE--
MNZN   28.34 143.4 MMwp     04:33:15.369                                 ___         18354.7 14.70 a__ Mwp    6.1 BHZPE--
MNZN   28.34 143.4 IVMs_BB  04:41:55.773                                 ___         27693.8 25.60 a__ Ms_BB  6.4 BHZPE--
PUC0   28.68 139.6 P        04:33:04.529   0.9                           ___                       a__            BHZPE--
PUC0   28.68 139.6 IAmb     04:33:11.210                                 ___           583.7  1.24 a__ mb     6.2 BHZPE--
PUC0   28.68 139.6 MMwp     04:33:11.410                                 ___         21133.6  6.88 a__ Mwp    6.2 BHZPE--
PUC0   28.68 139.6 IVmB_BB  04:33:11.589                                 ___          5917.2  5.32 a__ mB_BB  6.5 BHZPE--
YANA   29.59 144.7 P        04:33:12.609   0.3                           ___                       a__            BHZPE--
YANA   29.59 144.7 IAmb     04:33:20.190                                 ___           251.6  1.20 a__ mb     5.9 BHZPE--
YANA   29.59 144.7 IVmB_BB  04:33:20.849                                 ___          3468.4  4.96 a__ mB_BB  6.3 BHZPE--
YANA   29.59 144.7 MMwp     04:33:25.970                                 ___         13863.1 13.36 a__ Mwp    6.0 BHZPE--
YANA   29.59 144.7 IVMs_BB  04:42:33.235                                 ___         20525.3 25.00 a__ Ms_BB  6.3 BHZPE--
ANC0   29.98 147.6 P        04:33:16.289   1.2                           ___                       a__            BHZPE--
ANC0   29.98 147.6 IAmb     04:33:22.329                                 ___           240.7  1.42 a__ mb     5.8 BHZPE--
ANC0   29.98 147.6 IVmB_BB  04:33:22.009                                 ___          2743.4  3.66 a__ mB_BB  6.2 BHZPE--
NNA0   30.31 147.3 P        04:33:17.359  -0.8                           T__                       a__            BHZII00
NNA0   30.31 147.3 IVmB_BB  04:33:23.660                                 ___          6903.6  2.80 a__ mB_BB  6.6 BHZII00
NNA0   30.31 147.3 IAmb     04:33:25.460                                 ___           937.1  1.40 a__ mb     6.4 BHZII00
NNA0   30.31 147.3 MMwp     04:33:33.559                                 ___         38213.5 16.20 a__ Mwp    6.4 BHZII00
NNA0   30.31 147.3 PcP      04:36:16.059  -2.2                           T__                       a__            BHZII00
NNA0   30.31 147.3 IVMs_BB  04:42:44.651                                 ___         45097.8 20.80 a__ Ms_BB  6.6 BHZII00
NNAP   30.32 147.3 P        04:33:17.990  -0.2                           ___                       a__            BHZPE--
NNAP   30.32 147.3 MMwp     04:33:24.869                                 ___          5084.3  6.88 a__ Mwp    5.7 BHZPE--
NNAP   30.32 147.3 IVmB_BB  04:33:25.150                                 ___          2548.7  1.70 a__ mB_BB  6.2 BHZPE--
NNAP   30.32 147.3 IAmb     04:33:25.450                                 ___           334.3  1.34 a__ mb     6.0 BHZPE--
NNAP   30.32 147.3 PcP      04:36:16.759  -1.5                           T__                       a__            BHZPE--
SNLR   30.18 148.1 P        04:33:18.309   1.3                           ___                       a__            BHZPE--
SNLR   30.18 148.1 IAmb     04:33:24.289                                 ___           540.3  1.44 a__ mb     6.2 BHZPE--
SNLR   30.18 148.1 IVmB_BB  04:33:22.700                                 ___          3972.1  2.62 a__ mB_BB  6.4 BHZPE--
SNLR   30.18 148.1 IVMs_BB  04:42:50.057                                 ___         25187.5 19.95 a__ Ms_BB  6.4 BHZPE--
HUB0   30.32 147.6 P        04:33:19.369   1.2                           ___                       a__            BHZPE--
HUB0   30.32 147.6 IAmb     04:33:25.269                                 ___           332.2  1.32 a__ mb     6.0 BHZPE--
HUB0   30.32 147.6 IVmB_BB  04:33:24.910                                 ___          3048.2  1.60 a__ mB_BB  6.3 BHZPE--
HUB0   30.32 147.6 PcP      04:36:17.329  -0.9                           T__                       a__            BHZPE--
HUB0   30.32 147.6 IVMs_BB  04:42:41.441                                 ___         20504.2 22.32 a__ Ms_BB  6.3 BHZPE--
STPO   30.89 143.0 P        04:33:22.869  -0.5                           ___                       a__            BHZPE--
STPO   30.89 143.0 IAmb     04:33:31.250                                 ___           614.8  1.36 a__ mb     6.2 BHZPE--
STPO   30.89 143.0 IVmB_BB  04:33:30.869                                 ___          3856.3  1.48 a__ mB_BB  6.4 BHZPE--
STPO   30.89 143.0 MMwp     04:33:51.210                                 ___         19427.6 28.34 a__ Mwp    6.2 BHZPE--
STPO   30.89 143.0 IVMs_BB  04:43:42.261                                 ___         30839.6 21.14 a__ Ms_BB  6.5 BHZPE--
HYO0   31.18 145.0 P        04:33:27.210   1.0                           ___                       a__            BHZPE--
HYO0   31.18 145.0 IAmb     04:33:35.130                                 ___           413.7  1.36 a__ mb     6.1 BHZPE--
HYO0   31.18 145.0 IVmB_BB  04:33:34.789                                 ___          3112.9  1.60 a__ mB_BB  6.3 BHZPE--
HYO0   31.18 145.0 MMwp     04:33:40.710                                 ___          9447.2 13.50 a__ Mwp    5.9 BHZPE--
HYO0   31.18 145.0 IVMs_BB  04:45:05.069                                 ___         14244.1 17.72 a__ Ms_BB  6.1 BHZPE--
CAZU   31.31 147.6 P        04:33:31.349   4.4                           ___                       a__            BHZPE--
CAZU   31.31 147.6 IAmb     04:33:32.930                                 ___           151.7  1.24 a__ mb     5.7 BHZPE--
CAZU   31.31 147.6 IVmB_BB  04:33:34.569                                 ___          2401.3  4.88 a__ mB_BB  6.2 BHZPE--
CAZU   31.31 147.6 IVMs_BB  04:43:12.283                                 ___         17464.6 21.52 a__ Ms_BB  6.2 BHZPE--
PAR0   32.13 148.4 P        04:33:33.650  -0.4                           ___                       a__            BHZPE--
PAR0   32.13 148.4 IAmb     04:33:40.910                                 ___           271.0  1.04 a__ mb     6.1 BHZPE--
PAR0   32.13 148.4 IVmB_BB  04:33:39.609                                 ___          3403.9  9.52 a__ mB_BB  6.4 BHZPE--
PAR0   32.13 148.4 MMwp     04:33:56.269                                 ___         40651.8 22.62 a__ Mwp    6.4 BHZPE--
PAR0   32.13 148.4 PcP      04:36:22.789  -0.2                           T__                       a__            BHZPE--
PAR0   32.13 148.4 IVMs_BB  04:43:35.379                                 ___         23285.2 22.86 a__ Ms_BB  6.4 BHZPE--
PCPA   32.12 145.7 P        04:33:35.650   0.9                           ___                       a__            BHZPE--
PCPA   32.12 145.7 IAmb     04:33:44.190                                 ___           495.1  1.24 a__ mb     6.3 BHZPE--
PCPA   32.12 145.7 IVmB_BB  04:33:43.829                                 ___          3506.7  1.40 a__ mB_BB  6.4 BHZPE--
PCPA   32.12 145.7 MMwp     04:33:50.170                                 ___         10435.5 14.52 a__ Mwp    6.0 BHZPE--
PCPA   32.12 145.7 IVMs_BB  04:45:15.720                                 ___         31161.9 19.18 a__ Ms_BB  6.5 BHZPE--
AYA0   32.71 144.5 P        04:33:40.279   0.7                           ___                       a__            BHZPE--
AYA0   32.71 144.5 IAmb     04:33:53.960                                 ___           540.8  1.20 a__ mb     6.3 BHZPE--
AYA0   32.71 144.5 IVmB_BB  04:33:46.299                                 ___          4506.1  4.92 a__ mB_BB  6.5 BHZPE--
